CCSDS_OMM_VERS = 2.0
CREATION_DATE  = 
ORIGINATOR     = 

OBJECT_NAME    = SEASAT 1
OBJECT_ID      = 1978-064A
CENTER_NAME    = EARTH
REF_FRAME      = TEME
TIME_SYSTEM    = UTC
MEAN_ELEMENT_THEORY = SGP/SGP4

EPOCH          = 2026-01-24T12:02:53.976768
MEAN_MOTION    = 14.46117398
ECCENTRICITY   = .00012483
INCLINATION    = 108.0169
RA_OF_ASC_NODE = 32.7641
ARG_OF_PERICENTER = 285.7779
MEAN_ANOMALY   = 74.3229

EPHEMERIS_TYPE = 0
CLASSIFICATION_TYPE = U
NORAD_CAT_ID   = 10967
ELEMENT_SET_NO = 999
REV_AT_EPOCH   = 50012
BSTAR          = .23679028E-3
MEAN_MOTION_DOT = .709E-5
MEAN_MOTION_DDOT = 0

CCSDS_OMM_VERS = 2.0
CREATION_DATE  = 
ORIGINATOR     = 

OBJECT_NAME    = SL-14 R/B
OBJECT_ID      = 1979-011B
CENTER_NAME    = EARTH
REF_FRAME      = TEME
TIME_SYSTEM    = UTC
MEAN_ELEMENT_THEORY = SGP/SGP4

EPOCH          = 2026-01-24T17:10:48.035136
MEAN_MOTION    = 14.91843443
ECCENTRICITY   = .00155264
INCLINATION    = 82.5262
RA_OF_ASC_NODE = 138.2875
ARG_OF_PERICENTER = 199.4025
MEAN_ANOMALY   = 160.6606

EPHEMERIS_TYPE = 0
CLASSIFICATION_TYPE = U
NORAD_CAT_ID   = 11267
ELEMENT_SET_NO = 999
REV_AT_EPOCH   = 52222
BSTAR          = .11809711E-3
MEAN_MOTION_DOT = .1219E-4
MEAN_MOTION_DDOT = 0

CCSDS_OMM_VERS = 2.0
CREATION_DATE  = 
ORIGINATOR     = 

OBJECT_NAME    = SL-8 R/B
OBJECT_ID      = 1979-089B
CENTER_NAME    = EARTH
REF_FRAME      = TEME
TIME_SYSTEM    = UTC
MEAN_ELEMENT_THEORY = SGP/SGP4

EPOCH          = 2026-01-24T20:10:28.249536
MEAN_MOTION    = 14.42318901
ECCENTRICITY   = .00159299
INCLINATION    = 74.0685
RA_OF_ASC_NODE = 172.2059
ARG_OF_PERICENTER = 351.5225
MEAN_ANOMALY   = 8.5659

EPHEMERIS_TYPE = 0
CLASSIFICATION_TYPE = U
NORAD_CAT_ID   = 11574
ELEMENT_SET_NO = 999
REV_AT_EPOCH   = 42978
BSTAR          = .18544027E-3
MEAN_MOTION_DOT = .587E-5
MEAN_MOTION_DDOT = 0

CCSDS_OMM_VERS = 2.0
CREATION_DATE  = 
ORIGINATOR     = 

OBJECT_NAME    = SL-14 R/B
OBJECT_ID      = 1980-005B
CENTER_NAME    = EARTH
REF_FRAME      = TEME
TIME_SYSTEM    = UTC
MEAN_ELEMENT_THEORY = SGP/SGP4

EPOCH          = 2026-01-24T21:37:56.121600
MEAN_MOTION    = 14.90862117
ECCENTRICITY   = .00145788
INCLINATION    = 82.5161
RA_OF_ASC_NODE = 348.7593
ARG_OF_PERICENTER = 314.1060
MEAN_ANOMALY   = 45.8959

EPHEMERIS_TYPE = 0
CLASSIFICATION_TYPE = U
NORAD_CAT_ID   = 11672
ELEMENT_SET_NO = 999
REV_AT_EPOCH   = 46996
BSTAR          = .12875686E-3
MEAN_MOTION_DOT = .1295E-4
MEAN_MOTION_DDOT = 0

CCSDS_OMM_VERS = 2.0
CREATION_DATE  = 
ORIGINATOR     = 

OBJECT_NAME    = SL-8 R/B
OBJECT_ID      = 1981-003B
CENTER_NAME    = EARTH
REF_FRAME      = TEME
TIME_SYSTEM    = UTC
MEAN_ELEMENT_THEORY = SGP/SGP4

EPOCH          = 2026-01-24T19:17:16.250784
MEAN_MOTION    = 15.09085408
ECCENTRICITY   = .02678917
INCLINATION    = 82.9392
RA_OF_ASC_NODE = 330.5528
ARG_OF_PERICENTER = 332.1027
MEAN_ANOMALY   = 26.6047

EPHEMERIS_TYPE = 0
CLASSIFICATION_TYPE = U
NORAD_CAT_ID   = 12139
ELEMENT_SET_NO = 999
REV_AT_EPOCH   = 30805
BSTAR          = .81733977E-3
MEAN_MOTION_DOT = .30799E-3
MEAN_MOTION_DDOT = 0

CCSDS_OMM_VERS = 2.0
CREATION_DATE  = 
ORIGINATOR     = 

OBJECT_NAME    = SL-3 R/B
OBJECT_ID      = 1981-046B
CENTER_NAME    = EARTH
REF_FRAME      = TEME
TIME_SYSTEM    = UTC
MEAN_ELEMENT_THEORY = SGP/SGP4

EPOCH          = 2026-01-24T20:02:10.708224
MEAN_MOTION    = 15.40711873
ECCENTRICITY   = .00195658
INCLINATION    = 81.2342
RA_OF_ASC_NODE = 342.3411
ARG_OF_PERICENTER = 166.2786
MEAN_ANOMALY   = 193.8993

EPHEMERIS_TYPE = 0
CLASSIFICATION_TYPE = U
NORAD_CAT_ID   = 12465
ELEMENT_SET_NO = 999
REV_AT_EPOCH   = 43167
BSTAR          = .41313672E-3
MEAN_MOTION_DOT = .1703E-3
MEAN_MOTION_DDOT = 0

CCSDS_OMM_VERS = 2.0
CREATION_DATE  = 
ORIGINATOR     = 

OBJECT_NAME    = SL-3 R/B
OBJECT_ID      = 1981-103B
CENTER_NAME    = EARTH
REF_FRAME      = TEME
TIME_SYSTEM    = UTC
MEAN_ELEMENT_THEORY = SGP/SGP4

EPOCH          = 2026-01-24T21:29:34.335456
MEAN_MOTION    = 15.20822748
ECCENTRICITY   = .00144459
INCLINATION    = 81.1573
RA_OF_ASC_NODE = 264.7947
ARG_OF_PERICENTER = 73.0581
MEAN_ANOMALY   = 287.2233

EPHEMERIS_TYPE = 0
CLASSIFICATION_TYPE = U
NORAD_CAT_ID   = 12904
ELEMENT_SET_NO = 999
REV_AT_EPOCH   = 96657
BSTAR          = .35767664E-3
MEAN_MOTION_DOT = .7937E-4
MEAN_MOTION_DDOT = 0

CCSDS_OMM_VERS = 2.0
CREATION_DATE  = 
ORIGINATOR     = 

OBJECT_NAME    = SL-3 R/B
OBJECT_ID      = 1982-013B
CENTER_NAME    = EARTH
REF_FRAME      = TEME
TIME_SYSTEM    = UTC
MEAN_ELEMENT_THEORY = SGP/SGP4

EPOCH          = 2026-01-24T22:08:37.140576
MEAN_MOTION    = 15.21515535
ECCENTRICITY   = .00222534
INCLINATION    = 81.1728
RA_OF_ASC_NODE = 212.0458
ARG_OF_PERICENTER = 329.4999
MEAN_ANOMALY   = 30.4937

EPHEMERIS_TYPE = 0
CLASSIFICATION_TYPE = U
NORAD_CAT_ID   = 13068
ELEMENT_SET_NO = 999
REV_AT_EPOCH   = 39769
BSTAR          = .31549664E-3
MEAN_MOTION_DOT = .7174E-4
MEAN_MOTION_DDOT = 0

CCSDS_OMM_VERS = 2.0
CREATION_DATE  = 
ORIGINATOR     = 

OBJECT_NAME    = SL-3 R/B
OBJECT_ID      = 1982-039B
CENTER_NAME    = EARTH
REF_FRAME      = TEME
TIME_SYSTEM    = UTC
MEAN_ELEMENT_THEORY = SGP/SGP4

EPOCH          = 2026-01-24T22:05:13.776576
MEAN_MOTION    = 15.09824349
ECCENTRICITY   = .00300456
INCLINATION    = 81.1649
RA_OF_ASC_NODE = 266.4018
ARG_OF_PERICENTER = 107.6785
MEAN_ANOMALY   = 252.7725

EPHEMERIS_TYPE = 0
CLASSIFICATION_TYPE = U
NORAD_CAT_ID   = 13154
ELEMENT_SET_NO = 999
REV_AT_EPOCH   = 37503
BSTAR          = .26107566E-3
MEAN_MOTION_DOT = .4289E-4
MEAN_MOTION_DDOT = 0

CCSDS_OMM_VERS = 2.0
CREATION_DATE  = 
ORIGINATOR     = 

OBJECT_NAME    = SL-3 R/B
OBJECT_ID      = 1982-079B
CENTER_NAME    = EARTH
REF_FRAME      = TEME
TIME_SYSTEM    = UTC
MEAN_ELEMENT_THEORY = SGP/SGP4

EPOCH          = 2026-01-24T21:17:04.619328
MEAN_MOTION    = 15.24170325
ECCENTRICITY   = .00245674
INCLINATION    = 81.1444
RA_OF_ASC_NODE = 244.7807
ARG_OF_PERICENTER = 316.5625
MEAN_ANOMALY   = 43.3671

EPHEMERIS_TYPE = 0
CLASSIFICATION_TYPE = U
NORAD_CAT_ID   = 13403
ELEMENT_SET_NO = 999
REV_AT_EPOCH   = 37102
BSTAR          = .33853099E-3
MEAN_MOTION_DOT = .8336E-4
MEAN_MOTION_DDOT = 0

CCSDS_OMM_VERS = 2.0
CREATION_DATE  = 
ORIGINATOR     = 

OBJECT_NAME    = SL-14 R/B
OBJECT_ID      = 1982-092B
CENTER_NAME    = EARTH
REF_FRAME      = TEME
TIME_SYSTEM    = UTC
MEAN_ELEMENT_THEORY = SGP/SGP4

EPOCH          = 2026-01-24T20:09:29.901024
MEAN_MOTION    = 14.86610029
ECCENTRICITY   = .00218804
INCLINATION    = 82.5682
RA_OF_ASC_NODE = 182.4012
ARG_OF_PERICENTER = 87.0224
MEAN_ANOMALY   = 46.5984

EPHEMERIS_TYPE = 0
CLASSIFICATION_TYPE = U
NORAD_CAT_ID   = 13553
ELEMENT_SET_NO = 999
REV_AT_EPOCH   = 32241
BSTAR          = .10225809E-3
MEAN_MOTION_DOT = .935E-5
MEAN_MOTION_DDOT = 0

CCSDS_OMM_VERS = 2.0
CREATION_DATE  = 
ORIGINATOR     = 

OBJECT_NAME    = SL-3 R/B
OBJECT_ID      = 1983-010B
CENTER_NAME    = EARTH
REF_FRAME      = TEME
TIME_SYSTEM    = UTC
MEAN_ELEMENT_THEORY = SGP/SGP4

EPOCH          = 2026-01-24T13:00:15.645600
MEAN_MOTION    = 15.44797938
ECCENTRICITY   = .0016731
INCLINATION    = 81.1019
RA_OF_ASC_NODE = 56.3164
ARG_OF_PERICENTER = 195.7212
MEAN_ANOMALY   = 164.3515

EPHEMERIS_TYPE = 0
CLASSIFICATION_TYPE = U
NORAD_CAT_ID   = 13819
ELEMENT_SET_NO = 999
REV_AT_EPOCH   = 35112
BSTAR          = .36741301E-3
MEAN_MOTION_DOT = .17335E-3
MEAN_MOTION_DDOT = 0

CCSDS_OMM_VERS = 2.0
CREATION_DATE  = 
ORIGINATOR     = 

OBJECT_NAME    = SL-3 R/B
OBJECT_ID      = 1983-075B
CENTER_NAME    = EARTH
REF_FRAME      = TEME
TIME_SYSTEM    = UTC
MEAN_ELEMENT_THEORY = SGP/SGP4

EPOCH          = 2026-01-24T21:30:17.546688
MEAN_MOTION    = 15.37215476
ECCENTRICITY   = .00232965
INCLINATION    = 97.6129
RA_OF_ASC_NODE = 27.8652
ARG_OF_PERICENTER = 31.1070
MEAN_ANOMALY   = 329.1547

EPHEMERIS_TYPE = 0
CLASSIFICATION_TYPE = U
NORAD_CAT_ID   = 14208
ELEMENT_SET_NO = 999
REV_AT_EPOCH   = 32342
BSTAR          = .46013421E-3
MEAN_MOTION_DOT = .16852E-3
MEAN_MOTION_DDOT = 0

CCSDS_OMM_VERS = 2.0
CREATION_DATE  = 
ORIGINATOR     = 

OBJECT_NAME    = COSMOS 1536
OBJECT_ID      = 1984-013A
CENTER_NAME    = EARTH
REF_FRAME      = TEME
TIME_SYSTEM    = UTC
MEAN_ELEMENT_THEORY = SGP/SGP4

EPOCH          = 2026-01-24T18:43:38.617248
MEAN_MOTION    = 15.23178960
ECCENTRICITY   = .00157064
INCLINATION    = 82.5470
RA_OF_ASC_NODE = 151.4625
ARG_OF_PERICENTER = 78.5953
MEAN_ANOMALY   = 281.7047

EPHEMERIS_TYPE = 0
CLASSIFICATION_TYPE = U
NORAD_CAT_ID   = 14699
ELEMENT_SET_NO = 999
REV_AT_EPOCH   = 26593
BSTAR          = .39305434E-3
MEAN_MOTION_DOT = .9355E-4
MEAN_MOTION_DDOT = 0

CCSDS_OMM_VERS = 2.0
CREATION_DATE  = 
ORIGINATOR     = 

OBJECT_NAME    = SL-14 R/B
OBJECT_ID      = 1984-027B
CENTER_NAME    = EARTH
REF_FRAME      = TEME
TIME_SYSTEM    = UTC
MEAN_ELEMENT_THEORY = SGP/SGP4

EPOCH          = 2026-01-24T17:18:25.840224
MEAN_MOTION    = 14.85929256
ECCENTRICITY   = .00193585
INCLINATION    = 82.5423
RA_OF_ASC_NODE = 286.2546
ARG_OF_PERICENTER = 116.6737
MEAN_ANOMALY   = 243.6464

EPHEMERIS_TYPE = 0
CLASSIFICATION_TYPE = U
NORAD_CAT_ID   = 14820
ELEMENT_SET_NO = 999
REV_AT_EPOCH   = 24110
BSTAR          = .89375515E-4
MEAN_MOTION_DOT = .806E-5
MEAN_MOTION_DDOT = 0

